[{"OBJECT_NAME":"STARLINK-31967","OBJECT_ID":"2024-111F","EPOCH":"2026-03-09T09:40:25.801824","MEAN_MOTION":15.3019008,"ECCENTRICITY":0.00013766,"INCLINATION":53.1598,"RA_OF_ASC_NODE":76.6673,"ARG_OF_PERICENTER":88.3898,"MEAN_ANOMALY":271.7261,"EPHEMERIS_TYPE":0,"CLASSIFICATION_TYPE":"U","NORAD_CAT_ID":60021,"ELEMENT_SET_NO":999,"REV_AT_EPOCH":9900,"BSTAR":-2.6110032e-5,"MEAN_MOTION_DOT":-1.132e-5,"MEAN_MOTION_DDOT":0},{"OBJECT_NAME":"FENGYUN 1C DEB","OBJECT_ID":"1999-025BZU","EPOCH":"2026-03-09T17:19:51.665664","MEAN_MOTION":15.28412118,"ECCENTRICITY":0.00188802,"INCLINATION":98.9598,"RA_OF_ASC_NODE":354.2029,"ARG_OF_PERICENTER":82.3682,"MEAN_ANOMALY":277.9697,"EPHEMERIS_TYPE":0,"CLASSIFICATION_TYPE":"U","NORAD_CAT_ID":31614,"ELEMENT_SET_NO":999,"REV_AT_EPOCH":97742,"BSTAR":0.011500831,"MEAN_MOTION_DOT":0.0033373,"MEAN_MOTION_DDOT":0}]
